OBJECT_NAME,OBJECT_ID,EPOCH,MEAN_MOTION,ECCENTRICITY,INCLINATION,RA_OF_ASC_NODE,ARG_OF_PERICENTER,MEAN_ANOMALY,EPHEMERIS_TYPE,CLASSIFICATION_TYPE,NORAD_CAT_ID,ELEMENT_SET_NO,REV_AT_EPOCH,BSTAR,MEAN_MOTION_DOT,MEAN_MOTION_DDOT
ONEWEB-0053,2020-008AC,2026-07-06T03:16:43.542048,13.10371807,.00016798,87.8817,32.5078,70.9871,289.1438,0,U,45157,999,31039,-.18051014E-2,-.617E-5,0
ONEWEB-0054,2020-008AD,2026-07-06T02:18:09.972000,13.10375592,.00018986,87.8827,32.5008,84.0276,276.1068,0,U,45158,999,31050,.18519471E-2,.659E-5,0
ONEWEB-0056,2020-008AE,2026-07-06T01:36:20.844288,13.10373336,.00020952,87.8826,32.4998,85.6574,274.4793,0,U,45159,999,31065,-.14069228E-2,-.478E-5,0
ONEWEB-0057,2020-008AF,2026-07-06T02:01:12.535968,13.10375573,.0001797,87.8824,32.5082,68.9410,291.1909,0,U,45160,999,31082,.85084323E-3,.31E-5,0
ONEWEB-0058,2020-008AG,2026-07-06T01:42:10.956960,13.10376539,.00017499,87.8819,32.5157,93.2869,266.8458,0,U,45161,999,31089,-.11315561E-2,-.382E-5,0
ONEWEB-0059,2020-008AH,2026-07-06T01:36:46.408320,13.10371748,.00016078,87.8819,32.5156,80.7311,279.3998,0,U,45162,999,31079,-.13477124E-2,-.458E-5,0
ONEWEB-0062,2020-008AJ,2026-07-06T02:10:36.342624,13.10375645,.00019445,87.8827,32.4997,95.2838,264.8511,0,U,45163,999,31066,.15758871E-2,.563E-5,0
ONEWEB-0065,2020-008AK,2026-07-06T02:59:27.471264,13.10371898,.00019499,87.8821,32.5007,77.5511,282.5834,0,U,45164,999,31036,-.10710556E-2,-.361E-5,0
ONEWEB-0066,2020-020A,2026-07-06T01:38:21.673824,13.11413035,.00017326,87.8882,17.3109,87.0986,273.0340,0,U,45424,999,30515,.30299093E-2,.1087E-4,0
ONEWEB-0067,2020-020B,2026-07-06T00:42:51.560352,13.11426358,.00018059,87.8902,17.2443,82.9917,277.1417,0,U,45425,999,30520,-.81852213E-3,-.277E-5,0
ONEWEB-0080,2020-020C,2026-07-06T00:42:23.397408,13.11417573,.00019246,87.8893,17.3173,98.0608,262.0738,0,U,45426,999,30517,-.87494805E-3,-.297E-5,0
ONEWEB-0090,2020-020D,2026-07-06T01:23:54.651552,13.11416387,.00018867,87.8889,17.3157,90.7432,269.3912,0,U,45427,999,30514,.14594768E-2,.53E-5,0
ONEWEB-0061,2020-020E,2026-07-06T02:09:52.460064,13.11415559,.00018247,87.8888,17.2936,89.9305,270.2032,0,U,45428,999,30510,-.13991128E-2,-.483E-5,0
ONEWEB-0081,2020-020F,2026-07-06T01:43:13.949472,13.11414575,.00016871,87.8883,17.3070,85.7628,274.3693,0,U,45429,999,30521,.43280932E-3,.166E-5,0
ONEWEB-0069,2020-020G,2026-07-06T01:45:53.333280,13.11416649,.00016229,87.8884,17.3098,87.9680,272.1634,0,U,45430,999,30514,.31453276E-3,.124E-5,0
ONEWEB-0031,2020-020H,2026-07-06T00:47:05.654112,13.11413767,.0001613,87.8877,17.3216,97.6873,262.4438,0,U,45431,999,30512,.14174598E-2,.515E-5,0
ONEWEB-0027,2020-020J,2026-07-05T22:35:40.143840,13.17652944,.00023471,87.9139,2.1337,98.8039,261.3358,0,U,45432,999,30882,.13875235E-4,.18E-6,0
ONEWEB-0064,2020-020K,2026-07-06T00:44:37.204224,13.11419299,.00019666,87.8883,17.3147,92.2899,267.8455,0,U,45433,999,30515,-.80371152E-3,-.272E-5,0
ONEWEB-0018,2020-020L,2026-07-06T01:30:49.386240,13.11414989,.00015093,87.8883,17.3077,96.3109,263.8190,0,U,45434,999,30510,.12845636E-2,.468E-5,0
ONEWEB-0083,2020-020M,2026-07-06T01:16:35.205600,13.11416245,.00018479,87.8887,17.3043,90.6516,269.4824,0,U,45435,999,30514,.16070514E-2,.582E-5,0
ONEWEB-0095,2020-020N,2026-07-06T01:04:21.959040,13.11417511,.00024915,87.8889,17.3147,81.4706,278.6705,0,U,45436,999,30514,.77013812E-3,.286E-5,0
ONEWEB-0092,2020-020P,2026-07-06T01:48:17.687808,13.11365490,.0001762,87.8886,17.2998,85.5031,274.6298,0,U,45437,999,30526,.57135508E-3,.215E-5,0
ONEWEB-0085,2020-020Q,2026-07-06T01:16:11.259840,13.11417089,.00018715,87.8880,17.3100,89.0304,271.1039,0,U,45438,999,30514,.13432684E-2,.489E-5,0
ONEWEB-0096,2020-020R,2026-07-05T23:28:57.061344,13.11416002,.0001976,87.8886,17.3218,87.7722,272.3632,0,U,45439,999,30512,.15330528E-2,.556E-5,0
ONEWEB-0037,2020-020S,2026-07-06T01:56:51.067968,13.11706103,.00015073,87.8894,17.2734,86.2333,273.8967,0,U,45440,999,30517,-.68734337E-1,-.24386E-3,0
ONEWEB-0042,2020-020T,2026-07-06T01:03:58.685472,13.11418151,.00017914,87.8889,17.3051,86.3976,273.7357,0,U,45441,999,30513,.84790987E-3,.313E-5,0
ONEWEB-0098,2020-020U,2026-07-06T00:58:02.728704,13.11419889,.00018442,87.8887,17.3148,91.0175,269.1165,0,U,45442,999,30511,.48584487E-3,.185E-5,0
ONEWEB-0055,2020-020V,2026-07-06T02:17:12.387264,13.11416231,.00018948,87.8886,17.3028,91.4332,268.7013,0,U,45443,999,30509,-.14973302E-2,-.518E-5,0
ONEWEB-0093,2020-020W,2026-07-06T01:53:10.778208,13.10890238,.00015849,87.8884,17.3008,82.6598,277.4710,0,U,45444,999,30515,-.29502183E-3,-.91E-6,0
ONEWEB-0029,2020-020X,2026-07-06T00:37:30.057312,13.11416523,.00016002,87.8880,17.3174,86.5255,273.6056,0,U,45445,999,30512,-.12388746E-2,-.426E-5,0
