[
  {
    "name": "ONEWEB-0053",
    "noradId": "45157",
    "line1": "1 45157U 20008AC  26187.13661507 -.00000617  00000+0 -18051-2 0  9997",
    "line2": "2 45157  87.8817  32.5078 0001679  70.9871 289.1438 13.10371807310395"
  },
  {
    "name": "ONEWEB-0054",
    "noradId": "45158",
    "line1": "1 45158U 20008AD  26187.09594875  .00000659  00000+0  18519-2 0  9999",
    "line2": "2 45158  87.8827  32.5008 0001898  84.0276 276.1068 13.10375592310501"
  },
  {
    "name": "ONEWEB-0056",
    "noradId": "45159",
    "line1": "1 45159U 20008AE  26187.06690792 -.00000478  00000+0 -14069-2 0  9999",
    "line2": "2 45159  87.8826  32.4998 0002095  85.6574 274.4793 13.10373336310652"
  },
  {
    "name": "ONEWEB-0057",
    "noradId": "45160",
    "line1": "1 45160U 20008AF  26187.08417287  .00000310  00000+0  85084-3 0  9998",
    "line2": "2 45160  87.8824  32.5082 0001797  68.9410 291.1909 13.10375573310827"
  },
  {
    "name": "ONEWEB-0058",
    "noradId": "45161",
    "line1": "1 45161U 20008AG  26187.07096015 -.00000382  00000+0 -11316-2 0  9997",
    "line2": "2 45161  87.8819  32.5157 0001749  93.2869 266.8458 13.10376539310899"
  },
  {
    "name": "ONEWEB-0059",
    "noradId": "45162",
    "line1": "1 45162U 20008AH  26187.06720380 -.00000458  00000+0 -13477-2 0  9990",
    "line2": "2 45162  87.8819  32.5156 0001607  80.7311 279.3998 13.10371748310799"
  },
  {
    "name": "ONEWEB-0062",
    "noradId": "45163",
    "line1": "1 45163U 20008AJ  26187.09069841  .00000563  00000+0  15759-2 0  9992",
    "line2": "2 45163  87.8827  32.4997 0001944  95.2838 264.8511 13.10375645310666"
  },
  {
    "name": "ONEWEB-0065",
    "noradId": "45164",
    "line1": "1 45164U 20008AK  26187.12462351 -.00000361  00000+0 -10711-2 0  9991",
    "line2": "2 45164  87.8821  32.5007 0001949  77.5511 282.5834 13.10371898310368"
  },
  {
    "name": "ONEWEB-0066",
    "noradId": "45424",
    "line1": "1 45424U 20020A   26187.06830641  .00001087  00000+0  30299-2 0  9995",
    "line2": "2 45424  87.8882  17.3109 0001732  87.0986 273.0340 13.11413035305159"
  },
  {
    "name": "ONEWEB-0067",
    "noradId": "45425",
    "line1": "1 45425U 20020B   26187.02976343 -.00000277  00000+0 -81852-3 0  9996",
    "line2": "2 45425  87.8902  17.2443 0001805  82.9917 277.1417 13.11426358305200"
  },
  {
    "name": "ONEWEB-0080",
    "noradId": "45426",
    "line1": "1 45426U 20020C   26187.02943747 -.00000297  00000+0 -87495-3 0  9990",
    "line2": "2 45426  87.8893  17.3173 0001924  98.0608 262.0738 13.11417573305172"
  },
  {
    "name": "ONEWEB-0090",
    "noradId": "45427",
    "line1": "1 45427U 20020D   26187.05827143  .00000530  00000+0  14595-2 0  9993",
    "line2": "2 45427  87.8889  17.3157 0001886  90.7432 269.3912 13.11416387305144"
  },
  {
    "name": "ONEWEB-0061",
    "noradId": "45428",
    "line1": "1 45428U 20020E   26187.09019051 -.00000483  00000+0 -13991-2 0  9997",
    "line2": "2 45428  87.8888  17.2936 0001824  89.9305 270.2032 13.11415559305109"
  },
  {
    "name": "ONEWEB-0081",
    "noradId": "45429",
    "line1": "1 45429U 20020F   26187.07168923  .00000166  00000+0  43281-3 0  9991",
    "line2": "2 45429  87.8883  17.3070 0001687  85.7628 274.3693 13.11414575305211"
  },
  {
    "name": "ONEWEB-0069",
    "noradId": "45430",
    "line1": "1 45430U 20020G   26187.07353395  .00000124  00000+0  31453-3 0  9994",
    "line2": "2 45430  87.8884  17.3098 0001622  87.9680 272.1634 13.11416649305142"
  },
  {
    "name": "ONEWEB-0031",
    "noradId": "45431",
    "line1": "1 45431U 20020H   26187.03270433  .00000515  00000+0  14175-2 0  9997",
    "line2": "2 45431  87.8877  17.3216 0001613  97.6873 262.4438 13.11413767305129"
  },
  {
    "name": "ONEWEB-0027",
    "noradId": "45432",
    "line1": "1 45432U 20020J   26186.94143685  .00000018  00000+0  13875-4 0  9991",
    "line2": "2 45432  87.9139   2.1337 0002347  98.8039 261.3358 13.17652944308827"
  },
  {
    "name": "ONEWEB-0064",
    "noradId": "45433",
    "line1": "1 45433U 20020K   26187.03098616 -.00000272  00000+0 -80371-3 0  9994",
    "line2": "2 45433  87.8883  17.3147 0001966  92.2899 267.8455 13.11419299305158"
  },
  {
    "name": "ONEWEB-0018",
    "noradId": "45434",
    "line1": "1 45434U 20020L   26187.06307160  .00000468  00000+0  12846-2 0  9991",
    "line2": "2 45434  87.8883  17.3077 0001509  96.3109 263.8190 13.11414989305101"
  },
  {
    "name": "ONEWEB-0083",
    "noradId": "45435",
    "line1": "1 45435U 20020M   26187.05318525  .00000582  00000+0  16071-2 0  9999",
    "line2": "2 45435  87.8887  17.3043 0001847  90.6516 269.4824 13.11416245305140"
  },
  {
    "name": "ONEWEB-0095",
    "noradId": "45436",
    "line1": "1 45436U 20020N   26187.04469860  .00000286  00000+0  77014-3 0  9994",
    "line2": "2 45436  87.8889  17.3147 0002491  81.4706 278.6705 13.11417511305140"
  },
  {
    "name": "ONEWEB-0092",
    "noradId": "45437",
    "line1": "1 45437U 20020P   26187.07520472  .00000215  00000+0  57136-3 0  9990",
    "line2": "2 45437  87.8886  17.2998 0001762  85.5031 274.6298 13.11365490305261"
  },
  {
    "name": "ONEWEB-0085",
    "noradId": "45438",
    "line1": "1 45438U 20020Q   26187.05290810  .00000489  00000+0  13433-2 0  9993",
    "line2": "2 45438  87.8880  17.3100 0001871  89.0304 271.1039 13.11417089305149"
  },
  {
    "name": "ONEWEB-0096",
    "noradId": "45439",
    "line1": "1 45439U 20020R   26186.97843821  .00000556  00000+0  15331-2 0  9994",
    "line2": "2 45439  87.8886  17.3218 0001976  87.7722 272.3632 13.11416002305125"
  },
  {
    "name": "ONEWEB-0037",
    "noradId": "45440",
    "line1": "1 45440U 20020S   26187.08114662 -.00024386  00000+0 -68734-1 0  9996",
    "line2": "2 45440  87.8894  17.2734 0001507  86.2333 273.8967 13.11706103305176"
  },
  {
    "name": "ONEWEB-0042",
    "noradId": "45441",
    "line1": "1 45441U 20020T   26187.04442923  .00000313  00000+0  84791-3 0  9992",
    "line2": "2 45441  87.8889  17.3051 0001791  86.3976 273.7357 13.11418151305134"
  },
  {
    "name": "ONEWEB-0098",
    "noradId": "45442",
    "line1": "1 45442U 20020U   26187.04030936  .00000185  00000+0  48584-3 0  9997",
    "line2": "2 45442  87.8887  17.3148 0001844  91.0175 269.1165 13.11419889305116"
  },
  {
    "name": "ONEWEB-0055",
    "noradId": "45443",
    "line1": "1 45443U 20020V   26187.09528226 -.00000518  00000+0 -14973-2 0  9993",
    "line2": "2 45443  87.8886  17.3028 0001894  91.4332 268.7013 13.11416231305099"
  },
  {
    "name": "ONEWEB-0093",
    "noradId": "45444",
    "line1": "1 45444U 20020W   26187.07859697 -.00000091  00000+0 -29502-3 0  9992",
    "line2": "2 45444  87.8884  17.3008 0001584  82.6598 277.4710 13.10890238305158"
  },
  {
    "name": "ONEWEB-0029",
    "noradId": "45445",
    "line1": "1 45445U 20020X   26187.02604233 -.00000426  00000+0 -12389-2 0  9998",
    "line2": "2 45445  87.8880  17.3174 0001600  86.5255 273.6056 13.11416523305121"
  }
]